{"type": "FeatureCollection", "features": [ {"type": "Feature", "properties": {"norad_id": 66947, "name": "STARLINK-36089", "group": "last-30-days", "lat": 15.271585672736673, "lon": 31.63445443459677, "alt_km": 323.6209861030793, "timestamp": "2025-12-18T19:29:51.288618+00:00", "meta": {"OBJECT_NAME": "STARLINK-36089", "OBJECT_ID": "2025-286Y", "EPOCH": "2025-12-18T06:00:02.999808", "MEAN_MOTION": 15.83707608, "ECCENTRICITY": 8.744e-05, "INCLINATION": 53.1553, "RA_OF_ASC_NODE": 22.6476, "ARG_OF_PERICENTER": 85.0567, "MEAN_ANOMALY": 328.0333, "EPHEMERIS_TYPE": 0, "CLASSIFICATION_TYPE": "U", "NORAD_CAT_ID": 66947, "ELEMENT_SET_NO": 999, "REV_AT_EPOCH": 287, "BSTAR": -0.0075247837, "MEAN_MOTION_DOT": -0.01498575, "MEAN_MOTION_DDOT": 0}, "tle": {"line1": "1 66947U 25286Y   25352.25003472 -.01498575  00000+0 -75248-2 0  9993", "line2": "2 66947  53.1553  22.6476 0000874  85.0567 328.0333 15.83707608  2877"}}, "geometry": {"type": "Point", "coordinates": [31.63445443459677, 15.271585672736673]}}, {"type": "Feature", "properties": {"norad_id": 66948, "name": "STARLINK-36116", "group": "last-30-days", "lat": 13.648429194580777, "lon": 30.315553597277656, "alt_km": 323.93016316725516, "timestamp": "2025-12-18T19:29:51.288630+00:00", "meta": {"OBJECT_NAME": "STARLINK-36116", "OBJECT_ID": "2025-286Z", "EPOCH": "2025-12-18T06:00:02.999808", "MEAN_MOTION": 15.83693377, "ECCENTRICITY": 8.684e-05, "INCLINATION": 53.1554, "RA_OF_ASC_NODE": 22.6519, "ARG_OF_PERICENTER": 87.5504, "MEAN_ANOMALY": 323.4923, "EPHEMERIS_TYPE": 0, "CLASSIFICATION_TYPE": "U", "NORAD_CAT_ID": 66948, "ELEMENT_SET_NO": 999, "REV_AT_EPOCH": 287, "BSTAR": -0.0074888793, "MEAN_MOTION_DOT": -0.01491358, "MEAN_MOTION_DDOT": 0}, "tle": {"line1": "1 66948U 25286Z   25352.25003472 -.01491358  00000+0 -74889-2 0  9996", "line2": "2 66948  53.1554  22.6519 0000868  87.5504 323.4923 15.83693377  2879"}}, "geometry": {"type": "Point", "coordinates": [30.315553597277656, 13.648429194580777]}}, {"type": "Feature", "properties": {"norad_id": 66949, "name": "STARLINK-36096", "group": "last-30-days", "lat": 16.91454776521332, "lon": 32.99724933245781, "alt_km": 323.3394110743602, "timestamp": "2025-12-18T19:29:51.288645+00:00", "meta": {"OBJECT_NAME": "STARLINK-36096", "OBJECT_ID": "2025-286AA", "EPOCH": "2025-12-18T06:00:02.999808", "MEAN_MOTION": 15.83719641, "ECCENTRICITY": 7.622e-05, "INCLINATION": 53.1554, "RA_OF_ASC_NODE": 22.6434, "ARG_OF_PERICENTER": 83.9159, "MEAN_ANOMALY": 331.252, "EPHEMERIS_TYPE": 0, "CLASSIFICATION_TYPE": "U", "NORAD_CAT_ID": 66949, "ELEMENT_SET_NO": 999, "REV_AT_EPOCH": 287, "BSTAR": -0.0075283515, "MEAN_MOTION_DOT": -0.0149989, "MEAN_MOTION_DDOT": 0}, "tle": {"line1": "1 66949U 25286AA  25352.25003472 -.01499890  00000+0 -75284-2 0  9996", "line2": "2 66949  53.1554  22.6434 0000762  83.9159 331.2520 15.83719641  2878"}}, "geometry": {"type": "Point", "coordinates": [32.99724933245781, 16.91454776521332]}}, {"type": "Feature", "properties": {"norad_id": 66950, "name": "STARLINK-36111", "group": "last-30-days", "lat": 20.27111140958367, "lon": 35.885262501698406, "alt_km": 322.7703580487696, "timestamp": "2025-12-18T19:29:51.288656+00:00", "meta": {"OBJECT_NAME": "STARLINK-36111", "OBJECT_ID": "2025-286AB", "EPOCH": "2025-12-18T06:00:02.999808", "MEAN_MOTION": 15.83734567, "ECCENTRICITY": 7.824e-05, "INCLINATION": 53.1555, "RA_OF_ASC_NODE": 22.6344, "ARG_OF_PERICENTER": 83.1373, "MEAN_ANOMALY": 336.3518, "EPHEMERIS_TYPE": 0, "CLASSIFICATION_TYPE": "U", "NORAD_CAT_ID": 66950, "ELEMENT_SET_NO": 999, "REV_AT_EPOCH": 287, "BSTAR": -0.0076012162, "MEAN_MOTION_DOT": -0.01513649, "MEAN_MOTION_DDOT": 0}, "tle": {"line1": "1 66950U 25286AB  25352.25003472 -.01513649  00000+0 -76012-2 0  9997", "line2": "2 66950  53.1555  22.6344 0000782  83.1373 336.3518 15.83734567  2870"}}, "geometry": {"type": "Point", "coordinates": [35.885262501698406, 20.27111140958367]}}, {"type": "Feature", "properties": {"norad_id": 66951, "name": "STARLINK-35999", "group": "last-30-days", "lat": 22.0014402719073, "lon": 37.439198288057284, "alt_km": 322.4592981828291, "timestamp": "2025-12-18T19:29:51.288665+00:00", "meta": {"OBJECT_NAME": "STARLINK-35999", "OBJECT_ID": "2025-286AC", "EPOCH": "2025-12-18T06:00:02.999808", "MEAN_MOTION": 15.83738202, "ECCENTRICITY": 8.34e-05, "INCLINATION": 53.1553, "RA_OF_ASC_NODE": 22.6296, "ARG_OF_PERICENTER": 81.0946, "MEAN_ANOMALY": 340.6562, "EPHEMERIS_TYPE": 0, "CLASSIFICATION_TYPE": "U", "NORAD_CAT_ID": 66951, "ELEMENT_SET_NO": 999, "REV_AT_EPOCH": 287, "BSTAR": -0.0076454114, "MEAN_MOTION_DOT": -0.01521665, "MEAN_MOTION_DDOT": 0}, "tle": {"line1": "1 66951U 25286AC  25352.25003472 -.01521665  00000+0 -76454-2 0  9995", "line2": "2 66951  53.1553  22.6296 0000834  81.0946 340.6562 15.83738202  2873"}}, "geometry": {"type": "Point", "coordinates": [37.439198288057284, 22.0014402719073]}}, {"type": "Feature", "properties": {"norad_id": 66952, "name": "STARLINK-36122", "group": "last-30-days", "lat": 18.619898414409228, "lon": 34.44550304856465, "alt_km": 323.04702318208274, "timestamp": "2025-12-18T19:29:51.288677+00:00", "meta": {"OBJECT_NAME": "STARLINK-36122", "OBJECT_ID": "2025-286AD", "EPOCH": "2025-12-18T06:00:02.999808", "MEAN_MOTION": 15.83724839, "ECCENTRICITY": 7.962e-05, "INCLINATION": 53.1556, "RA_OF_ASC_NODE": 22.6389, "ARG_OF_PERICENTER": 82.1709, "MEAN_ANOMALY": 335.1931, "EPHEMERIS_TYPE": 0, "CLASSIFICATION_TYPE": "U", "NORAD_CAT_ID": 66952, "ELEMENT_SET_NO": 999, "REV_AT_EPOCH": 287, "BSTAR": -0.007577749, "MEAN_MOTION_DOT": -0.01508919, "MEAN_MOTION_DDOT": 0}, "tle": {"line1": "1 66952U 25286AD  25352.25003472 -.01508919  00000+0 -75777-2 0  9990", "line2": "2 66952  53.1556  22.6389 0000796  82.1709 335.1931 15.83724839  2876"}}, "geometry": {"type": "Point", "coordinates": [34.44550304856465, 18.619898414409228]}}, {"type": "Feature", "properties": {"norad_id": 66953, "name": "HULIANWANG DIGUI-114", "group": "last-30-days", "lat": -35.417643559335616, "lon": 166.43864492703017, "alt_km": 1004.8501872630541, "timestamp": "2025-12-18T19:29:51.288687+00:00", "meta": {"OBJECT_NAME": "HULIANWANG DIGUI-114", "OBJECT_ID": "2025-287A", "EPOCH": "2025-12-15T20:15:59.937408", "MEAN_MOTION": 13.68689195, "ECCENTRICITY": 0.00087999, "INCLINATION": 86.496, "RA_OF_ASC_NODE": 345.0232, "ARG_OF_PERICENTER": 195.8466, "MEAN_ANOMALY": 164.2419, "EPHEMERIS_TYPE": 0, "CLASSIFICATION_TYPE": "U", "NORAD_CAT_ID": 66953, "ELEMENT_SET_NO": 999, "REV_AT_EPOCH": 95, "BSTAR": 2.5636052e-05, "MEAN_MOTION_DOT": 3.9e-07, "MEAN_MOTION_DDOT": 0}, "tle": {"line1": "1 66953U 25287A   25349.84444372  .00000039  00000+0  25636-4 0  9999", "line2": "2 66953  86.4960 345.0232 0008799 195.8466 164.2419 13.68689195   952"}}, "geometry": {"type": "Point", "coordinates": [166.43864492703017, -35.417643559335616]}}, {"type": "Feature", "properties": {"norad_id": 66954, "name": "HULIANWANG DIGUI-115", "group": "last-30-days", "lat": -39.02520015682261, "lon": 166.789944280579, "alt_km": 1004.8378133304723, "timestamp": "2025-12-18T19:29:51.288698+00:00", "meta": {"OBJECT_NAME": "HULIANWANG DIGUI-115", "OBJECT_ID": "2025-287B", "EPOCH": "2025-12-17T17:52:09.139872", "MEAN_MOTION": 13.68792369, "ECCENTRICITY": 0.00090008, "INCLINATION": 86.4975, "RA_OF_ASC_NODE": 344.3338, "ARG_OF_PERICENTER": 188.9372, "MEAN_ANOMALY": 171.1628, "EPHEMERIS_TYPE": 0, "CLASSIFICATION_TYPE": "U", "NORAD_CAT_ID": 66954, "ELEMENT_SET_NO": 999, "REV_AT_EPOCH": 121, "BSTAR": 1.5683947e-05, "MEAN_MOTION_DOT": 3e-07, "MEAN_MOTION_DDOT": 0}, "tle": {"line1": "1 66954U 25287B   25351.74455023  .00000030  00000+0  15684-4 0  9990", "line2": "2 66954  86.4975 344.3338 0009000 188.9372 171.1628 13.68792369  1210"}}, "geometry": {"type": "Point", "coordinates": [166.789944280579, -39.02520015682261]}}, {"type": "Feature", "properties": {"norad_id": 66955, "name": "HULIANWANG DIGUI-116", "group": "last-30-days", "lat": -37.385078234105954, "lon": 166.62043326809703, "alt_km": 1007.0518966861091, "timestamp": "2025-12-18T19:29:51.288708+00:00", "meta": {"OBJECT_NAME": "HULIANWANG DIGUI-116", "OBJECT_ID": "2025-287C", "EPOCH": "2025-12-17T12:36:13.610592", "MEAN_MOTION": 13.68336268, "ECCENTRICITY": 0.00084488, "INCLINATION": 86.4911, "RA_OF_ASC_NODE": 344.4027, "ARG_OF_PERICENTER": 182.8757, "MEAN_ANOMALY": 177.2355, "EPHEMERIS_TYPE": 0, "CLASSIFICATION_TYPE": "U", "NORAD_CAT_ID": 66955, "ELEMENT_SET_NO": 999, "REV_AT_EPOCH": 118, "BSTAR": 0.00015602229, "MEAN_MOTION_DOT": 1.5e-06, "MEAN_MOTION_DDOT": 0}, "tle": {"line1": "1 66955U 25287C   25351.52515753  .00000150  00000+0  15602-3 0  9996", "line2": "2 66955  86.4911 344.4027 0008448 182.8757 177.2355 13.68336268  1184"}}, "geometry": {"type": "Point", "coordinates": [166.62043326809703, -37.385078234105954]}}, {"type": "Feature", "properties": {"norad_id": 66956, "name": "HULIANWANG DIGUI-117", "group": "last-30-days", "lat": -47.04721818752028, "lon": 167.71632120344887, "alt_km": 1006.4770826137092, "timestamp": "2025-12-18T19:29:51.288717+00:00", "meta": {"OBJECT_NAME": "HULIANWANG DIGUI-117", "OBJECT_ID": "2025-287D", "EPOCH": "2025-12-16T06:45:06.569856", "MEAN_MOTION": 13.69018692, "ECCENTRICITY": 0.00077617, "INCLINATION": 86.4974, "RA_OF_ASC_NODE": 344.867, "ARG_OF_PERICENTER": 181.5999, "MEAN_ANOMALY": 178.5137, "EPHEMERIS_TYPE": 0, "CLASSIFICATION_TYPE": "U", "NORAD_CAT_ID": 66956, "ELEMENT_SET_NO": 999, "REV_AT_EPOCH": 101, "BSTAR": 2.3352809e-05, "MEAN_MOTION_DOT": 3.7e-07, "MEAN_MOTION_DDOT": 0}, "tle": {"line1": "1 66956U 25287D   25350.28132604  .00000037  00000+0  23353-4 0  9996", "line2": "2 66956  86.4974 344.8670 0007761 181.5999 178.5137 13.69018692  1016"}}, "geometry": {"type": "Point", "coordinates": [167.71632120344887, -47.04721818752028]}}]}